NORAD_CAT_ID,OBJECT_NAME,OBJECT_TYPE,EPOCH,MEAN_MOTION,ECCENTRICITY,INCLINATION,RA_OF_ASC_NODE,ARG_OF_PERICENTER,MEAN_ANOMALY,BSTAR,MEAN_MOTION_DOT,MEAN_MOTION_DDOT,TLE_LINE0,TLE_LINE1,TLE_LINE2,SEMIMAJOR_AXIS,PERIOD,APOGEE,PERIGEE,DECAYED
53745.0,STARLINK-4656,PAYLOAD,2023-07-13 14:48:59,15.08835751,9.68e-05,53.2177,299.0726,78.1441,281.966,-2.3186e-05,-6.57e-06,0.0,0 STARLINK-4656,1 53745U 22107AX  23194.61735687 -.00000657  00000-0 -23186-4 0  9992,2 53745  53.2177 299.0726 0000968  78.1441 281.9660 15.08835751 47369,6917.893,95.438,540.428,539.089,0.0
53745.0,STARLINK-4656,PAYLOAD,2023-07-14 13:04:22,15.08844129,0.0002049,53.2172,294.9103,99.6217,260.5007,7.746e-05,9.45e-06,0.0,0 STARLINK-4656,1 53745U 22107AX  23195.54470923  .00000945  00000-0  77460-4 0  9996,2 53745  53.2172 294.9103 0002049  99.6217 260.5007 15.08844129 47501,6917.868,95.437,541.15,538.315,0.0
53745.0,STARLINK-4656,PAYLOAD,2023-07-15 11:19:47,15.0883575,0.0001159,53.2175,290.748,66.1841,293.9273,8.6213e-05,1.084e-05,0.0,0 STARLINK-4656,1 53745U 22107AX  23196.47207339  .00001084  00000-0  86213-4 0  9999,2 53745  53.2175 290.7480 0001159  66.1841 293.9273 15.08835750 47649,6917.893,95.438,540.56,538.957,0.0
53745.0,STARLINK-4656,PAYLOAD,2023-07-16 12:45:58,15.08820441,0.0001021,53.2178,285.9889,87.0366,273.0743,0.00011625,1.562e-05,0.0,0 STARLINK-4656,1 53745U 22107AX  23197.53192531  .00001562  00000-0  11625-3 0  9999,2 53745  53.2178 285.9889 0001021  87.0366 273.0743 15.08820441 47803,6917.94,95.439,540.511,539.099,0.0
53745.0,STARLINK-4656,PAYLOAD,2023-07-17 12:36:43,15.08855148,9.93e-05,53.218,281.5293,89.9844,270.1262,-1.6416e-05,-5.49e-06,0.0,0 STARLINK-4656,1 53745U 22107AX  23198.52550685 -.00000549  00000-0 -16416-4 0  9997,2 53745  53.2180 281.5293 0000993  89.9844 270.1262 15.08855148 47958,6917.834,95.437,540.386,539.012,0.0
53745.0,STARLINK-4656,PAYLOAD,2023-07-18 10:52:08,15.08831974,0.000102,53.2172,277.3667,86.3301,273.7808,9.2695e-05,1.187e-05,0.0,0 STARLINK-4656,1 53745U 22107AX  23199.45288070  .00001187  00000-0  92695-4 0  9996,2 53745  53.2172 277.3667 0001020  86.3301 273.7808 15.08831974 48090,6917.905,95.438,540.476,539.064,0.0
53745.0,STARLINK-4656,PAYLOAD,2023-07-19 12:18:19,15.08832378,0.0001022,53.2175,272.6079,91.5437,268.5672,-6.736e-05,-1.359e-05,0.0,0 STARLINK-4656,1 53745U 22107AX  23200.51272998 -.00001359  00000-0 -67360-4 0  9992,2 53745  53.2175 272.6079 0001022  91.5437 268.5672 15.08832378 48256,6917.904,95.438,540.476,539.062,0.0
53745.0,STARLINK-4656,PAYLOAD,2023-07-20 12:09:06,15.08843347,0.0001095,53.2169,268.1464,94.0106,266.1011,7.6146e-05,9.24e-06,0.0,0 STARLINK-4656,1 53745U 22107AX  23201.50632024  .00000924  00000-0  76146-4 0  9999,2 53745  53.2169 268.1464 0001095  94.0106 266.1011 15.08843347 48404,6917.87,95.437,540.493,538.978,0.0
53745.0,STARLINK-4656,PAYLOAD,2023-07-24 11:32:14,15.088391,0.0001031,53.2163,250.3018,93.4802,266.6308,4.9929e-05,5.07e-06,0.0,0 STARLINK-4656,1 53745U 22107AX  23205.48072236  .00000507  00000-0  49929-4 0  9999,2 53745  53.2163 250.3018 0001031  93.4802 266.6308 15.08839100 49780,6917.883,95.438,540.461,539.035,0.0
53745.0,STARLINK-4656,PAYLOAD,2023-07-25 08:12:15,15.08837859,0.0001195,53.2159,246.4383,83.6126,276.5002,-1.5748e-05,-5.38e-06,0.0,0 STARLINK-4656,1 53745U 22107AX  23206.34184744 -.00000538  00000-0 -15748-4 0  9991,2 53745  53.2159 246.4383 0001195  83.6126 276.5002 15.08837859 49912,6917.887,95.438,540.579,538.925,0.0
53745.0,STARLINK-4656,PAYLOAD,2023-07-26 03:16:53,15.08838137,0.000118,53.2158,242.8699,88.6483,271.4644,2.3898e-06,-2.5e-06,0.0,0 STARLINK-4656,1 53745U 22107AX  23207.13672642 -.00000250  00000-0  23898-5 0  9994,2 53745  53.2158 242.8699 0001180  88.6483 271.4644 15.08838137 50037,6917.886,95.438,540.567,538.935,0.0
53745.0,STARLINK-4656,PAYLOAD,2023-07-26 19:10:44,15.08839585,0.0001061,53.2149,239.8958,84.6287,275.4826,7.4319e-05,8.95e-06,0.0,0 STARLINK-4656,1 53745U 22107AX  23207.79912502  .00000895  00000-0  74319-4 0  9995,2 53745  53.2149 239.8958 0001061  84.6287 275.4826 15.08839585 49354,6917.882,95.438,540.481,539.013,0.0
53745.0,STARLINK-4656,PAYLOAD,2023-07-27 03:07:40,15.08839244,0.0001105,53.2153,238.4085,85.5521,274.5597,5.64e-05,6.1e-06,0.0,0 STARLINK-4656,1 53745U 22107AX  23208.13032614  .00000610  00000-0  56400-4 0  9997,2 53745  53.2153 238.4085 0001105  85.5521 274.5597 15.08839244 50185,6917.883,95.438,540.512,538.983,0.0
53745.0,STARLINK-4656,PAYLOAD,2023-07-27 19:01:31,15.08839348,0.0001115,53.2154,235.4348,86.0799,274.032,5.1542e-05,5.33e-06,0.0,0 STARLINK-4656,1 53745U 22107AX  23208.79272629  .00000533  00000-0  51542-4 0  9997,2 53745  53.2154 235.4348 0001115  86.0799 274.0320 15.08839348 50284,6917.882,95.438,540.519,538.976,0.0
53745.0,STARLINK-4656,PAYLOAD,2023-07-28 01:23:04,15.08834431,0.0001155,53.2157,234.2463,86.9591,273.1533,-1.8994e-05,-5.9e-06,0.0,0 STARLINK-4656,1 53745U 22107AX  23209.05769236 -.00000590  00000-0 -18994-4 0  9991,2 53745  53.2157 234.2463 0001155  86.9591 273.1533 15.08834431 49546,6917.897,95.438,540.561,538.963,0.0
53745.0,STARLINK-4656,PAYLOAD,2023-07-28 10:55:23,15.08833931,0.0001161,53.2155,232.4616,86.3655,273.747,-2.2064e-05,-6.39e-06,0.0,0 STARLINK-4656,1 53745U 22107AX  23209.45513399 -.00000639  00000-0 -22064-4 0  9999,2 53745  53.2155 232.4616 0001161  86.3655 273.7470 15.08833931 50380,6917.899,95.438,540.567,538.961,0.0
53745.0,STARLINK-4656,PAYLOAD,2023-07-29 07:35:24,15.08839576,0.0001274,53.2158,228.5957,85.8443,274.2694,2.2451e-05,6.9e-07,0.0,0 STARLINK-4656,1 53745U 22107AX  23210.31625012  .00000069  00000-0  22451-4 0  9997,2 53745  53.2158 228.5957 0001274  85.8443 274.2694 15.08839576 49733,6917.882,95.438,540.628,538.865,0.0
53745.0,STARLINK-4656,PAYLOAD,2023-07-31 00:55:25,15.0884292,0.0001216,53.2155,220.8637,84.7458,275.3673,1.3934e-05,-6.6e-07,0.0,0 STARLINK-4656,1 53745U 22107AX  23212.03848861 -.00000066  00000-0  13934-4 0  9991,2 53745  53.2155 220.8637 0001216  84.7458 275.3673 15.08842920 49994,6917.871,95.437,540.578,538.895,0.0
53745.0,STARLINK-4656,PAYLOAD,2023-07-31 23:10:49,15.08837186,0.0001202,53.2156,216.7001,89.3776,270.7354,-2.1917e-05,-6.37e-06,0.0,0 STARLINK-4656,1 53745U 22107AX  23212.96585270 -.00000637  00000-0 -21917-4 0  9990,2 53745  53.2156 216.7001 0001202  89.3776 270.7354 15.08837186 50134,6917.889,95.438,540.586,538.922,0.0
53745.0,STARLINK-4656,PAYLOAD,2023-08-02 00:36:59,15.08836916,0.0001193,53.2157,211.9424,88.2921,271.8208,6.4538e-06,-1.85e-06,0.0,0 STARLINK-4656,1 53745U 22107AX  23214.02569287 -.00000185  00000-0  64538-5 0  9993,2 53745  53.2157 211.9424 0001193  88.2921 271.8208 15.08836916 50297,6917.89,95.438,540.58,538.93,0.0
53745.0,STARLINK-4656,PAYLOAD,2023-08-03 06:49:19,15.08834723,0.0001175,53.2159,206.2931,90.98,269.1327,2.9671e-05,1.84e-06,0.0,0 STARLINK-4656,1 53745U 22107AX  23215.28425722  .00000184  00000-0  29671-4 0  9993,2 53745  53.2159 206.2931 0001175  90.9800 269.1327 15.08834723 50482,6917.897,95.438,540.574,538.949,0.0
53745.0,STARLINK-4656,PAYLOAD,2023-08-04 08:15:29,15.08839691,0.0001178,53.2161,201.5351,88.4826,271.6301,5.2024e-05,5.4e-06,0.0,0 STARLINK-4656,1 53745U 22107AX  23216.34409570  .00000540  00000-0  52024-4 0  9998,2 53745  53.2161 201.5351 0001178  88.4826 271.6301 15.08839691 50649,6917.881,95.438,540.561,538.931,0.0
53745.0,STARLINK-4656,PAYLOAD,2023-08-06 04:46:17,15.08844496,0.0001315,53.2166,193.207,86.7207,273.3935,5.6419e-05,6.1e-06,0.0,0 STARLINK-4656,1 53745U 22107AX  23218.19881311  .00000610  00000-0  56419-4 0  9990,2 53745  53.2166 193.2070 0001315  86.7207 273.3935 15.08844496 50928,6917.867,95.437,540.641,538.822,0.0
53745.0,STARLINK-4656,PAYLOAD,2023-08-06 15:53:59,15.08838932,0.0001276,53.2154,191.1263,85.6118,274.502,4.121e-05,3.68e-06,0.0,0 STARLINK-4656,1 53745U 22107AX  23218.66249634  .00000368  00000-0  41210-4 0  9991,2 53745  53.2154 191.1263 0001276  85.6118 274.5020 15.08838932 50994,6917.884,95.438,540.631,538.866,0.0
53745.0,STARLINK-4656,PAYLOAD,2023-08-07 23:41:42,15.08775882,0.0001661,53.216,185.1782,98.7461,261.3719,0.00081017,0.00012607,0.0,0 STARLINK-4656,1 53745U 22107AX  23219.98729850  .00012607  00000-0  81017-3 0  9997,2 53745  53.2160 185.1782 0001661  98.7461 261.3719 15.08775882 51190,6918.076,95.442,541.09,538.792,0.0
53745.0,STARLINK-4656,PAYLOAD,2023-08-08 07:38:37,15.08848125,0.0001262,53.2166,183.6924,103.4946,256.6187,8.1716e-05,1.013e-05,0.0,0 STARLINK-4656,1 53745U 22107AX  23220.31848853  .00001013  00000-0  81716-4 0  9997,2 53745  53.2166 183.6924 0001262 103.4946 256.6187 15.08848125 51249,6917.856,95.437,540.594,538.848,0.0
53745.0,STARLINK-4656,PAYLOAD,2023-08-08 21:57:06,15.08828343,7.17e-05,53.2164,181.0156,78.5,281.6073,7.5303e-06,-1.68e-06,0.0,0 STARLINK-4656,1 53745U 22107AX  23220.91466412 -.00000168  00000-0  75303-5 0  9997,2 53745  53.2164 181.0156 0000717  78.5000 281.6073 15.08828343 51335,6917.916,95.438,540.277,539.285,0.0
53745.0,STARLINK-4656,PAYLOAD,2023-08-09 07:29:25,15.08839237,0.0001235,53.216,179.2324,95.6389,264.4744,6.7871e-05,7.92e-06,0.0,0 STARLINK-4656,1 53745U 22107AX  23221.31209670  .00000792  00000-0  67871-4 0  9995,2 53745  53.2160 179.2324 0001235  95.6389 264.4744 15.08839237 51397,6917.883,95.438,540.602,538.893,0.0
53745.0,STARLINK-4656,PAYLOAD,2023-08-10 07:20:12,15.08838353,0.0001135,53.2158,174.772,89.2208,270.8914,-9.8313e-05,-1.852e-05,0.0,0 STARLINK-4656,1 53745U 22107AX  23222.30570549 -.00001852  00000-0 -98313-4 0  9996,2 53745  53.2158 174.7720 0001135  89.2208 270.8914 15.08838353 51547,6917.885,95.438,540.536,538.965,0.0
53745.0,STARLINK-4656,PAYLOAD,2023-08-11 13:32:32,15.0883175,0.0001388,53.2166,169.1211,83.3245,276.7905,0.00013587,1.875e-05,0.0,0 STARLINK-4656,1 53745U 22107AX  23223.56426661  .00001875  00000-0  13587-3 0  9992,2 53745  53.2166 169.1211 0001388  83.3245 276.7905 15.08831750 51735,6917.906,95.438,540.731,538.81,0.0
